{
    "links": {
        "self": "http://www.neowsapp.com/rest/v1/neo/3772985?api_key=iIulBulltgU6a56xZRHN4H3l9WmuAYTsLGpBGhQ2"
    },
    "id": "3772985",
    "neo_reference_id": "3772985",
    "name": "(2017 FN101)",
    "designation": "2017 FN101",
    "nasa_jpl_url": "http://ssd.jpl.nasa.gov/sbdb.cgi?sstr=3772985",
    "absolute_magnitude_h": 24.7,
    "estimated_diameter": {
        "kilometers": {
            "estimated_diameter_min": 0.0305179233,
            "estimated_diameter_max": 0.0682401509
        },
        "meters": {
            "estimated_diameter_min": 30.5179232594,
            "estimated_diameter_max": 68.2401509401
        },
        "miles": {
            "estimated_diameter_min": 0.0189629525,
            "estimated_diameter_max": 0.0424024508
        },
        "feet": {
            "estimated_diameter_min": 100.1244233463,
            "estimated_diameter_max": 223.8850168104
        }
    },
    "is_potentially_hazardous_asteroid": false,
    "close_approach_data": [
        {
            "close_approach_date": "2017-04-07",
            "close_approach_date_full": "2017-Apr-07 12:20",
            "epoch_date_close_approach": 1491567600000,
            "relative_velocity": {
                "kilometers_per_second": "8.3488132168",
                "kilometers_per_hour": "30055.7275803064",
                "miles_per_hour": "18675.460284552"
            },
            "miss_distance": {
                "astronomical": "0.0264266889",
                "lunar": "10.2799819821",
                "kilometers": "3953376.370592643",
                "miles": "2456514.1666107534"
            },
            "orbiting_body": "Earth"
        }
    ],
    "orbital_data": {
        "orbit_id": "5",
        "orbit_determination_date": "2018-02-10 07:08:51",
        "first_observation_date": "2017-03-22",
        "last_observation_date": "2017-04-09",
        "data_arc_in_days": 18,
        "observations_used": 60,
        "orbit_uncertainty": "7",
        "minimum_orbit_intersection": ".0154807",
        "jupiter_tisserand_invariant": "3.671",
        "epoch_osculation": "2459000.5",
        "eccentricity": ".5050969133687654",
        "semi_major_axis": "1.997565408188492",
        "inclination": "4.671309805004733",
        "ascending_node_longitude": "34.64347352050472",
        "orbital_period": "1031.216705716819",
        "perihelion_distance": ".9886012862602669",
        "perihelion_argument": "181.5186926341762",
        "aphelion_distance": "3.006529530116718",
        "perihelion_time": "2458896.954663350099",
        "mean_anomaly": "36.147902751491",
        "mean_motion": ".3491021799823899",
        "equinox": "J2000",
        "orbit_class": {
            "orbit_class_type": "APO",
            "orbit_class_description": "Near-Earth asteroid orbits which cross the Earth’s orbit similar to that of 1862 Apollo",
            "orbit_class_range": "a (semi-major axis) > 1.0 AU; q (perihelion) < 1.017 AU"
        }
    },
    "is_sentry_object": false
}